NORAD_CAT_ID,OBJECT_NAME,OBJECT_TYPE,EPOCH,MEAN_MOTION,ECCENTRICITY,INCLINATION,RA_OF_ASC_NODE,ARG_OF_PERICENTER,MEAN_ANOMALY,BSTAR,MEAN_MOTION_DOT,MEAN_MOTION_DDOT,TLE_LINE0,TLE_LINE1,TLE_LINE2,SEMIMAJOR_AXIS,PERIOD,APOGEE,PERIGEE,DECAYED
52857.0,STARLINK-4199,PAYLOAD,2024-01-21 02:17:14,15.08841942,0.0001402,53.2175,279.3677,98.3111,261.804,8.2423e-05,1.024e-05,0.0,0 STARLINK-4199,1 52857U 22062AD  24021.09530852  .00001024  00000-0  82423-4 0  9990,2 52857  53.2175 279.3677 0001402  98.3111 261.8040 15.08841942 88877,6917.874,95.437,540.709,538.77,0.0
52857.0,STARLINK-4199,PAYLOAD,2024-01-21 21:21:52,15.08847792,0.0001403,53.2179,275.7963,95.8649,264.2503,-2.1272e-05,-6.27e-06,0.0,0 STARLINK-4199,1 52857U 22062AD  24021.89018773 -.00000627  00000-0 -21272-4 0  9996,2 52857  53.2179 275.7963 0001403  95.8649 264.2503 15.08847792 88508,6917.857,95.437,540.692,538.751,0.0
52857.0,STARLINK-4199,PAYLOAD,2024-01-22 00:32:38,15.08850198,0.0001583,53.2176,275.2032,86.6346,273.4827,3.8569e-05,3.26e-06,0.0,0 STARLINK-4199,1 52857U 22062AD  24022.02266492  .00000326  00000-0  38569-4 0  9996,2 52857  53.2176 275.2032 0001583  86.6346 273.4827 15.08850198 88525,6917.849,95.437,540.809,538.619,0.0
52857.0,STARLINK-4199,PAYLOAD,2024-01-22 22:48:03,15.08824766,0.0001572,53.2186,271.0427,70.7912,289.325,0.00016712,2.372e-05,0.0,0 STARLINK-4199,1 52857U 22062AD  24022.95003809  .00002372  00000-0  16712-3 0  9997,2 52857  53.2186 271.0427 0001572  70.7912 289.3250 15.08824766 88662,6917.927,95.439,540.879,538.704,0.0
52857.0,STARLINK-4199,PAYLOAD,2024-01-23 22:38:48,15.0885535,0.0001421,53.2168,266.5834,93.7237,266.3917,5.3384e-05,5.62e-06,0.0,0 STARLINK-4199,1 52857U 22062AD  24023.94362104  .00000562  00000-0  53384-4 0  9999,2 52857  53.2168 266.5834 0001421  93.7237 266.3917 15.08855350 88816,6917.833,95.437,540.681,538.715,0.0
52857.0,STARLINK-4199,PAYLOAD,2024-01-24 19:18:50,15.08842551,0.000109,53.2172,262.7101,67.876,292.2347,4.7145e-05,4.63e-06,0.0,0 STARLINK-4199,1 52857U 22062AD  24024.80475030  .00000463  00000-0  47145-4 0  9996,2 52857  53.2172 262.7101 0001090  67.8760 292.2347 15.08842551 89434,6917.873,95.437,540.492,538.984,0.0
52857.0,STARLINK-4199,PAYLOAD,2024-01-24 22:29:36,15.08841212,0.0001175,53.2167,262.1164,81.8728,278.2397,3.9797e-05,3.46e-06,0.0,0 STARLINK-4199,1 52857U 22062AD  24024.93723056  .00000346  00000-0  39797-4 0  9998,2 52857  53.2167 262.1164 0001175  81.8728 278.2397 15.08841212 88964,6917.877,95.437,540.555,538.929,0.0
52857.0,STARLINK-4199,PAYLOAD,2024-01-25 22:20:23,15.08843031,0.000135,53.2169,257.6602,112.7449,247.3686,-6.4599e-05,-1.316e-05,0.0,0 STARLINK-4199,1 52857U 22062AD  24025.93083232 -.00001316  00000-0 -64599-4 0  9992,2 52857  53.2169 257.6602 0001350 112.7449 247.3686 15.08843031 89118,6917.871,95.437,540.67,538.802,0.0
52857.0,STARLINK-4199,PAYLOAD,2024-01-26 20:35:47,15.08838604,0.0001365,53.2168,253.4982,110.3822,249.7317,0.0001255,1.71e-05,0.0,0 STARLINK-4199,1 52857U 22062AD  24026.85819113  .00001710  00000-0  12550-3 0  9994,2 52857  53.2168 253.4982 0001365 110.3822 249.7317 15.08838604 89259,6917.885,95.438,540.694,538.805,0.0
52857.0,STARLINK-4199,PAYLOAD,2024-01-27 20:26:35,15.08840671,0.0001156,53.2159,249.0374,97.2059,262.9064,6.8023e-05,7.95e-06,0.0,0 STARLINK-4199,1 52857U 22062AD  24027.85179436  .00000795  00000-0  68023-4 0  9991,2 52857  53.2159 249.0374 0001156  97.2059 262.9064 15.08840671 89891,6917.878,95.438,540.543,538.944,0.0
52857.0,STARLINK-4199,PAYLOAD,2024-01-27 22:01:58,15.08840238,0.0001127,53.2157,248.7391,90.5582,269.5539,5.8152e-05,6.38e-06,0.0,0 STARLINK-4199,1 52857U 22062AD  24027.91803430  .00000638  00000-0  58152-4 0  9994,2 52857  53.2157 248.7391 0001127  90.5582 269.5539 15.08840238 89416,6917.88,95.438,540.524,538.965,0.0
52857.0,STARLINK-4199,PAYLOAD,2024-01-28 01:12:44,15.08840659,0.000113,53.2157,248.1443,89.8066,270.3055,5.8337e-05,6.41e-06,0.0,0 STARLINK-4199,1 52857U 22062AD  24028.05051395  .00000641  00000-0  58337-4 0  9994,2 52857  53.2157 248.1443 0001130  89.8066 270.3055 15.08840659 89432,6917.878,95.438,540.525,538.962,0.0
52857.0,STARLINK-4199,PAYLOAD,2024-01-28 18:41:59,15.08831996,0.0001264,53.2162,244.871,80.1697,279.9438,-9.228e-06,-4.35e-06,0.0,0 STARLINK-4199,1 52857U 22062AD  24028.77916423 -.00000435  00000-0 -92280-5 0  9994,2 52857  53.2162 244.8710 0001264  80.1697 279.9438 15.08831996 90032,6917.905,95.438,540.644,538.895,0.0
52857.0,STARLINK-4199,PAYLOAD,2024-01-28 21:52:45,15.08834128,0.0001347,53.2165,244.2762,79.5964,280.518,7.6345e-06,-1.66e-06,0.0,0 STARLINK-4199,1 52857U 22062AD  24028.91164305 -.00000166  00000-0  76345-5 0  9998,2 52857  53.2165 244.2762 0001347  79.5964 280.5180 15.08834128 89565,6917.898,95.438,540.695,538.831,0.0
52857.0,STARLINK-4199,PAYLOAD,2024-01-28 23:28:08,15.08835596,0.0001353,53.2166,243.9787,80.7145,279.4,1.7976e-05,-2e-08,0.0,0 STARLINK-4199,1 52857U 22062AD  24028.97788191 -.00000002  00000-0  17976-4 0  9992,2 52857  53.2166 243.9787 0001353  80.7145 279.4000 15.08835596 89570,6917.894,95.438,540.695,538.823,0.0
52857.0,STARLINK-4199,PAYLOAD,2024-01-29 23:18:55,15.08845541,0.000155,53.217,239.5179,70.8985,289.2175,0.00012855,1.759e-05,0.0,0 STARLINK-4199,1 52857U 22062AD  24029.97147294  .00001759  00000-0  12855-3 0  9995,2 52857  53.2170 239.5179 0001550  70.8985 289.2175 15.08845541 90218,6917.863,95.437,540.801,538.656,0.0
52857.0,STARLINK-4199,PAYLOAD,2024-01-30 18:23:33,15.08841414,0.0001118,53.2155,235.9539,91.868,268.244,6.1017e-05,6.83e-06,0.0,0 STARLINK-4199,1 52857U 22062AD  24030.76635581  .00000683  00000-0  61017-4 0  9995,2 52857  53.2155 235.9539 0001118  91.8680 268.2440 15.08841414 90336,6917.876,95.437,540.514,538.968,0.0
52857.0,STARLINK-4199,PAYLOAD,2024-01-31 13:28:10,15.08839189,0.0001239,53.2156,232.3812,81.7264,278.3869,1.9499e-05,2.2e-07,0.0,0 STARLINK-4199,1 52857U 22062AD  24031.56123686  .00000022  00000-0  19499-4 0  9996,2 52857  53.2156 232.3812 0001239  81.7264 278.3869 15.08839189 89962,6917.883,95.438,540.605,538.891,0.0
52857.0,STARLINK-4199,PAYLOAD,2024-01-31 23:00:29,15.08838758,0.0001339,53.216,230.5978,80.1365,279.9778,1.768e-05,-7e-08,0.0,0 STARLINK-4199,1 52857U 22062AD  24031.95867777 -.00000007  00000-0  17680-4 0  9999,2 52857  53.2160 230.5978 0001339  80.1365 279.9778 15.08838758 90516,6917.884,95.438,540.675,538.823,0.0
52857.0,STARLINK-4199,PAYLOAD,2024-02-01 13:18:57,15.08839603,0.0001329,53.216,227.9213,80.9241,279.1901,2.5102e-05,1.12e-06,0.0,0 STARLINK-4199,1 52857U 22062AD  24032.55483728  .00000112  00000-0  25102-4 0  9990,2 52857  53.2160 227.9213 0001329  80.9241 279.1901 15.08839603 90114,6917.882,95.438,540.666,538.827,0.0
52857.0,STARLINK-4199,PAYLOAD,2024-02-01 18:05:07,15.0883885,0.0001538,53.217,227.0307,98.2234,261.8932,5.0716e-05,5.19e-06,0.0,0 STARLINK-4199,1 52857U 22062AD  24032.75355593  .00000519  00000-0  50716-4 0  9990,2 52857  53.2170 227.0307 0001538  98.2234 261.8932 15.08838850 90144,6917.884,95.438,540.813,538.685,0.0
52857.0,STARLINK-4199,PAYLOAD,2024-02-02 13:09:44,15.08838098,0.0001582,53.2171,223.4623,97.418,262.6992,5.8502e-05,6.43e-06,0.0,0 STARLINK-4199,1 52857U 22062AD  24033.54843698  .00000643  00000-0  58502-4 0  9995,2 52857  53.2171 223.4623 0001582  97.4180 262.6992 15.08838098 90268,6917.886,95.438,540.846,538.657,0.0
52857.0,STARLINK-4199,PAYLOAD,2024-02-02 19:31:17,15.08838853,0.0001476,53.2167,222.2731,100.4804,259.6354,5.8596e-05,6.45e-06,0.0,0 STARLINK-4199,1 52857U 22062AD  24033.81339648  .00000645  00000-0  58596-4 0  9995,2 52857  53.2167 222.2731 0001476 100.4804 259.6354 15.08838853 90795,6917.884,95.438,540.77,538.728,0.0
52857.0,STARLINK-4199,PAYLOAD,2024-02-03 13:00:32,15.08836967,0.0001483,53.2168,219.0021,98.4373,261.6787,2.2482e-05,7e-07,0.0,0 STARLINK-4199,1 52857U 22062AD  24034.54204057  .00000070  00000-0  22482-4 0  9998,2 52857  53.2168 219.0021 0001483  98.4373 261.6787 15.08836967 90413,6917.89,95.438,540.781,538.729,0.0
52857.0,STARLINK-4199,PAYLOAD,2024-02-03 19:22:04,15.0883614,0.000142,53.2166,217.8138,94.1802,265.9353,1.2614e-05,-8.7e-07,0.0,0 STARLINK-4199,1 52857U 22062AD  24034.80700206 -.00000087  00000-0  12614-4 0  9999,2 52857  53.2166 217.8138 0001420  94.1802 265.9353 15.08836140 90944,6917.892,95.438,540.74,538.775,0.0
52857.0,STARLINK-4199,PAYLOAD,2024-02-04 20:48:14,15.08843366,0.0001319,53.216,213.0548,85.5664,274.5479,6.2583e-05,7.08e-06,0.0,0 STARLINK-4199,1 52857U 22062AD  24035.86683708  .00000708  00000-0  62583-4 0  9992,2 52857  53.2160 213.0548 0001319  85.5664 274.5479 15.08843366 91100,6917.87,95.437,540.648,538.823,0.0
52857.0,STARLINK-4199,PAYLOAD,2024-02-05 19:03:38,15.08839722,0.0001356,53.2162,208.8911,81.1223,278.9923,6.0678e-05,6.78e-06,0.0,0 STARLINK-4199,1 52857U 22062AD  24036.79420111  .00000678  00000-0  60678-4 0  9991,2 52857  53.2162 208.8911 0001356  81.1223 278.9923 15.08839722 91240,6917.881,95.438,540.684,538.808,0.0
52857.0,STARLINK-4199,PAYLOAD,2024-02-06 10:57:30,15.08841708,0.0001505,53.2165,205.918,75.6203,284.4956,3.9604e-05,3.42e-06,0.0,0 STARLINK-4199,1 52857U 22062AD  24037.45660156  .00000342  00000-0  39604-4 0  9993,2 52857  53.2165 205.9180 0001505  75.6203 284.4956 15.08841708 90852,6917.875,95.437,540.781,538.699,0.0
52857.0,STARLINK-4199,PAYLOAD,2024-02-06 17:19:02,15.08844737,0.000157,53.2167,204.7301,72.583,287.5334,6.2837e-05,7.12e-06,0.0,0 STARLINK-4199,1 52857U 22062AD  24037.72155855  .00000712  00000-0  62837-4 0  9993,2 52857  53.2167 204.7301 0001570  72.5830 287.5334 15.08844737 90893,6917.866,95.437,540.817,538.645,0.0
52857.0,STARLINK-4199,PAYLOAD,2024-02-07 10:48:17,15.08840369,0.0001534,53.2172,201.4609,74.7936,285.3225,2.9751e-05,1.86e-06,0.0,0 STARLINK-4199,1 52857U 22062AD  24038.45020243  .00000186  00000-0  29751-4 0  9999,2 52857  53.2172 201.4609 0001534  74.7936 285.3225 15.08840369 91494,6917.879,95.438,540.805,538.683,0.0
